{"type": "FeatureCollection", "features": [ {"type": "Feature", "properties": {"norad_id": 31805, "name": "FENGYUN 1C DEB", "group": "fengyun-1c-debris", "lat": 13.753564516779784, "lon": -21.231361353655547, "alt_km": 1007.047907645213, "timestamp": "2025-12-23T11:34:48.446777+00:00", "meta": {"OBJECT_NAME": "FENGYUN 1C DEB", "OBJECT_ID": "1999-025CGT", "EPOCH": "2025-12-22T18:23:36.095136", "MEAN_MOTION": 14.02886852, "ECCENTRICITY": 0.04473511, "INCLINATION": 98.3624, "RA_OF_ASC_NODE": 340.1713, "ARG_OF_PERICENTER": 130.5127, "MEAN_ANOMALY": 233.5923, "EPHEMERIS_TYPE": 0, "CLASSIFICATION_TYPE": "U", "NORAD_CAT_ID": 31805, "ELEMENT_SET_NO": 999, "REV_AT_EPOCH": 62504, "BSTAR": 0.0013975945, "MEAN_MOTION_DOT": 5.257e-05, "MEAN_MOTION_DDOT": 0}, "tle": {"line1": "1 31805U 99025CGT 25356.76638999  .00005257  00000+0  13976-2 0  9996", "line2": "2 31805  98.3624 340.1713 0447351 130.5127 233.5923 14.02886852625041"}}, "geometry": {"type": "Point", "coordinates": [-21.231361353655547, 13.753564516779784]}}, {"type": "Feature", "properties": {"norad_id": 31807, "name": "FENGYUN 1C DEB", "group": "fengyun-1c-debris", "lat": 73.1696062169155, "lon": 97.39169361949314, "alt_km": 667.7494669400121, "timestamp": "2025-12-23T11:34:48.446786+00:00", "meta": {"OBJECT_NAME": "FENGYUN 1C DEB", "OBJECT_ID": "1999-025CGV", "EPOCH": "2025-12-20T02:11:56.055264", "MEAN_MOTION": 14.52092951, "ECCENTRICITY": 0.01056723, "INCLINATION": 99.0773, "RA_OF_ASC_NODE": 125.6333, "ARG_OF_PERICENTER": 140.5729, "MEAN_ANOMALY": 220.3216, "EPHEMERIS_TYPE": 0, "CLASSIFICATION_TYPE": "U", "NORAD_CAT_ID": 31807, "ELEMENT_SET_NO": 999, "REV_AT_EPOCH": 65412, "BSTAR": 0.00055367814, "MEAN_MOTION_DOT": 2.354e-05, "MEAN_MOTION_DDOT": 0}, "tle": {"line1": "1 31807U 99025CGV 25354.09162101  .00002354  00000+0  55368-3 0  9996", "line2": "2 31807  99.0773 125.6333 0105672 140.5729 220.3216 14.52092951654120"}}, "geometry": {"type": "Point", "coordinates": [97.39169361949314, 73.1696062169155]}}, {"type": "Feature", "properties": {"norad_id": 31808, "name": "FENGYUN 1C DEB", "group": "fengyun-1c-debris", "lat": -20.0162950124568, "lon": -171.03065822745788, "alt_km": 720.985123403515, "timestamp": "2025-12-23T11:34:48.446796+00:00", "meta": {"OBJECT_NAME": "FENGYUN 1C DEB", "OBJECT_ID": "1999-025CGW", "EPOCH": "2025-12-19T18:42:17.529120", "MEAN_MOTION": 14.57488452, "ECCENTRICITY": 0.00360596, "INCLINATION": 99.2028, "RA_OF_ASC_NODE": 181.4934, "ARG_OF_PERICENTER": 116.7543, "MEAN_ANOMALY": 243.7349, "EPHEMERIS_TYPE": 0, "CLASSIFICATION_TYPE": "U", "NORAD_CAT_ID": 31808, "ELEMENT_SET_NO": 999, "REV_AT_EPOCH": 57705, "BSTAR": 0.0028333961, "MEAN_MOTION_DOT": 0.00012956, "MEAN_MOTION_DDOT": 0}, "tle": {"line1": "1 31808U 99025CGW 25353.77936955  .00012956  00000+0  28334-2 0  9998", "line2": "2 31808  99.2028 181.4934 0036059 116.7543 243.7349 14.57488452577056"}}, "geometry": {"type": "Point", "coordinates": [-171.03065822745788, -20.0162950124568]}}, {"type": "Feature", "properties": {"norad_id": 31810, "name": "FENGYUN 1C DEB", "group": "fengyun-1c-debris", "lat": 80.67485757630024, "lon": -49.72259831221573, "alt_km": 589.7342783794966, "timestamp": "2025-12-23T11:34:48.446805+00:00", "meta": {"OBJECT_NAME": "FENGYUN 1C DEB", "OBJECT_ID": "1999-025CGY", "EPOCH": "2025-12-17T20:39:34.005600", "MEAN_MOTION": 14.45854827, "ECCENTRICITY": 0.0214524, "INCLINATION": 98.269, "RA_OF_ASC_NODE": 7.1218, "ARG_OF_PERICENTER": 124.8314, "MEAN_ANOMALY": 237.3263, "EPHEMERIS_TYPE": 0, "CLASSIFICATION_TYPE": "U", "NORAD_CAT_ID": 31810, "ELEMENT_SET_NO": 999, "REV_AT_EPOCH": 64488, "BSTAR": 0.00038073485, "MEAN_MOTION_DOT": 1.748e-05, "MEAN_MOTION_DDOT": 0}, "tle": {"line1": "1 31810U 99025CGY 25351.86081025  .00001748  00000+0  38073-3 0  9997", "line2": "2 31810  98.2690   7.1218 0214524 124.8314 237.3263 14.45854827644883"}}, "geometry": {"type": "Point", "coordinates": [-49.72259831221573, 80.67485757630024]}}, {"type": "Feature", "properties": {"norad_id": 31813, "name": "FENGYUN 1C DEB", "group": "fengyun-1c-debris", "lat": 18.068900469041242, "lon": -98.61829649552459, "alt_km": 800.2912293835498, "timestamp": "2025-12-23T11:34:48.446814+00:00", "meta": {"OBJECT_NAME": "FENGYUN 1C DEB", "OBJECT_ID": "1999-025CHB", "EPOCH": "2025-12-19T04:08:07.148544", "MEAN_MOTION": 14.4980422, "ECCENTRICITY": 0.01359265, "INCLINATION": 99.4267, "RA_OF_ASC_NODE": 73.4576, "ARG_OF_PERICENTER": 314.58, "MEAN_ANOMALY": 44.436, "EPHEMERIS_TYPE": 0, "CLASSIFICATION_TYPE": "U", "NORAD_CAT_ID": 31813, "ELEMENT_SET_NO": 999, "REV_AT_EPOCH": 97349, "BSTAR": 0.0003332184, "MEAN_MOTION_DOT": 1.382e-05, "MEAN_MOTION_DDOT": 0}, "tle": {"line1": "1 31813U 99025CHB 25353.17230496  .00001382  00000+0  33322-3 0  9990", "line2": "2 31813  99.4267  73.4576 0135926 314.5800  44.4360 14.49804220973491"}}, "geometry": {"type": "Point", "coordinates": [-98.61829649552459, 18.068900469041242]}}, {"type": "Feature", "properties": {"norad_id": 31814, "name": "FENGYUN 1C DEB", "group": "fengyun-1c-debris", "lat": -4.407843331661327, "lon": 48.002219895577525, "alt_km": 1181.6119630430312, "timestamp": "2025-12-23T11:34:48.446823+00:00", "meta": {"OBJECT_NAME": "FENGYUN 1C DEB", "OBJECT_ID": "1999-025CHC", "EPOCH": "2025-12-20T22:05:52.017216", "MEAN_MOTION": 13.66483356, "ECCENTRICITY": 0.0230189, "INCLINATION": 99.5707, "RA_OF_ASC_NODE": 44.7236, "ARG_OF_PERICENTER": 194.5646, "MEAN_ANOMALY": 164.8789, "EPHEMERIS_TYPE": 0, "CLASSIFICATION_TYPE": "U", "NORAD_CAT_ID": 31814, "ELEMENT_SET_NO": 999, "REV_AT_EPOCH": 61911, "BSTAR": 0.00045515, "MEAN_MOTION_DOT": 4.08e-06, "MEAN_MOTION_DDOT": 0}, "tle": {"line1": "1 31814U 99025CHC 25354.92074094  .00000408  00000+0  45515-3 0  9990", "line2": "2 31814  99.5707  44.7236 0230189 194.5646 164.8789 13.66483356619116"}}, "geometry": {"type": "Point", "coordinates": [48.002219895577525, -4.407843331661327]}}, {"type": "Feature", "properties": {"norad_id": 31815, "name": "FENGYUN 1C DEB", "group": "fengyun-1c-debris", "lat": 80.18811932872728, "lon": -79.64877797353215, "alt_km": 853.4755338631512, "timestamp": "2025-12-23T11:34:48.446832+00:00", "meta": {"OBJECT_NAME": "FENGYUN 1C DEB", "OBJECT_ID": "1999-025CHD", "EPOCH": "2025-12-22T16:26:54.855168", "MEAN_MOTION": 14.10282936, "ECCENTRICITY": 0.00587479, "INCLINATION": 98.769, "RA_OF_ASC_NODE": 342.7627, "ARG_OF_PERICENTER": 354.1539, "MEAN_ANOMALY": 5.8939, "EPHEMERIS_TYPE": 0, "CLASSIFICATION_TYPE": "U", "NORAD_CAT_ID": 31815, "ELEMENT_SET_NO": 999, "REV_AT_EPOCH": 95679, "BSTAR": 8.1796289e-05, "MEAN_MOTION_DOT": 1.04e-06, "MEAN_MOTION_DDOT": 0}, "tle": {"line1": "1 31815U 99025CHD 25356.68535712  .00000104  00000+0  81796-4 0  9990", "line2": "2 31815  98.7690 342.7627 0058747 354.1539   5.8939 14.10282936956797"}}, "geometry": {"type": "Point", "coordinates": [-79.64877797353215, 80.18811932872728]}}, {"type": "Feature", "properties": {"norad_id": 31816, "name": "FENGYUN 1C DEB", "group": "fengyun-1c-debris", "lat": 0.6839665832802971, "lon": -68.41651708346583, "alt_km": 863.779766894284, "timestamp": "2025-12-23T11:34:48.446842+00:00", "meta": {"OBJECT_NAME": "FENGYUN 1C DEB", "OBJECT_ID": "1999-025CHE", "EPOCH": "2025-12-18T19:29:53.743776", "MEAN_MOTION": 13.94197872, "ECCENTRICITY": 0.01209789, "INCLINATION": 98.9843, "RA_OF_ASC_NODE": 106.933, "ARG_OF_PERICENTER": 138.28, "MEAN_ANOMALY": 12.885, "EPHEMERIS_TYPE": 0, "CLASSIFICATION_TYPE": "U", "NORAD_CAT_ID": 31816, "ELEMENT_SET_NO": 999, "REV_AT_EPOCH": 93778, "BSTAR": 0.00051958301, "MEAN_MOTION_DOT": 6.91e-06, "MEAN_MOTION_DDOT": 0}, "tle": {"line1": "1 31816U 99025CHE 25352.81242759  .00000691  00000+0  51958-3 0  9995", "line2": "2 31816  98.9843 106.9330 0120978 138.2800  12.8850 13.94197872937782"}}, "geometry": {"type": "Point", "coordinates": [-68.41651708346583, 0.6839665832802971]}}, {"type": "Feature", "properties": {"norad_id": 31817, "name": "FENGYUN 1C DEB", "group": "fengyun-1c-debris", "lat": -69.08887609856623, "lon": 19.023721756474394, "alt_km": 699.3333224415501, "timestamp": "2025-12-23T11:34:48.446851+00:00", "meta": {"OBJECT_NAME": "FENGYUN 1C DEB", "OBJECT_ID": "1999-025CHF", "EPOCH": "2025-12-17T05:10:40.756800", "MEAN_MOTION": 14.65734447, "ECCENTRICITY": 0.00627326, "INCLINATION": 98.9191, "RA_OF_ASC_NODE": 347.9563, "ARG_OF_PERICENTER": 62.1287, "MEAN_ANOMALY": 298.6249, "EPHEMERIS_TYPE": 0, "CLASSIFICATION_TYPE": "U", "NORAD_CAT_ID": 31817, "ELEMENT_SET_NO": 999, "REV_AT_EPOCH": 71471, "BSTAR": 0.0010276456, "MEAN_MOTION_DOT": 5.707e-05, "MEAN_MOTION_DDOT": 0}, "tle": {"line1": "1 31817U 99025CHF 25351.21574950  .00005707  00000+0  10276-2 0  9990", "line2": "2 31817  98.9191 347.9563 0062732  62.1287 298.6249 14.65734447714717"}}, "geometry": {"type": "Point", "coordinates": [19.023721756474394, -69.08887609856623]}}, {"type": "Feature", "properties": {"norad_id": 31819, "name": "FENGYUN 1C DEB", "group": "fengyun-1c-debris", "lat": -76.81417247421041, "lon": 28.030076365505185, "alt_km": 736.9113660937364, "timestamp": "2025-12-23T11:34:48.446860+00:00", "meta": {"OBJECT_NAME": "FENGYUN 1C DEB", "OBJECT_ID": "1999-025CHH", "EPOCH": "2025-12-18T19:27:06.092352", "MEAN_MOTION": 14.30189469, "ECCENTRICITY": 0.00866841, "INCLINATION": 98.4742, "RA_OF_ASC_NODE": 343.9606, "ARG_OF_PERICENTER": 302.4699, "MEAN_ANOMALY": 56.8125, "EPHEMERIS_TYPE": 0, "CLASSIFICATION_TYPE": "U", "NORAD_CAT_ID": 31819, "ELEMENT_SET_NO": 999, "REV_AT_EPOCH": 96780, "BSTAR": 0.00031246283, "MEAN_MOTION_DOT": 7.99e-06, "MEAN_MOTION_DDOT": 0}, "tle": {"line1": "1 31819U 99025CHH 25352.81048718  .00000799  00000+0  31246-3 0  9994", "line2": "2 31819  98.4742 343.9606 0086684 302.4699  56.8125 14.30189469967806"}}, "geometry": {"type": "Point", "coordinates": [28.030076365505185, -76.81417247421041]}}]}